NORAD_CAT_ID,OBJECT_NAME,OBJECT_TYPE,EPOCH,MEAN_MOTION,ECCENTRICITY,INCLINATION,RA_OF_ASC_NODE,ARG_OF_PERICENTER,MEAN_ANOMALY,BSTAR,MEAN_MOTION_DOT,MEAN_MOTION_DDOT,TLE_LINE0,TLE_LINE1,TLE_LINE2,SEMIMAJOR_AXIS,PERIOD,APOGEE,PERIGEE,DECAYED
52113.0,STARLINK-3736,PAYLOAD,2023-01-06 15:57:58,15.08827851,0.0002144,53.2162,237.6964,51.1479,308.9704,-0.00031777,-5.34e-05,0.0,0 STARLINK-3736,1 52113U 22029AB  23006.66526350 -.00005340  00000-0 -31777-3 0  9993,2 52113  53.2162 237.6964 0002144  51.1479 308.9704 15.08827851 45968,6917.9180000000015,95.438,541.266,538.299,0.0
52113.0,STARLINK-3736,PAYLOAD,2023-01-07 01:30:18,15.08823385,0.000211,53.2156,235.9127,49.5424,310.5752,-8.4384e-05,-1.63e-05,0.0,0 STARLINK-3736,1 52113U 22029AB  23007.06270944 -.00001630  00000-0 -84384-4 0  9994,2 52113  53.2156 235.9127 0002110  49.5424 310.5752 15.08823385 46025,6917.931,95.439,541.256,538.336,0.0
52113.0,STARLINK-3736,PAYLOAD,2023-01-07 07:51:50,15.08832293,0.0002066,53.2156,234.7231,50.7419,309.3756,-6.497e-05,-1.322e-05,0.0,0 STARLINK-3736,1 52113U 22029AB  23007.32766883 -.00001322  00000-0 -64970-4 0  9992,2 52113  53.2156 234.7231 0002066  50.7419 309.3756 15.08832293 46068,6917.904,95.438,541.198,538.34,0.0
52113.0,STARLINK-3736,PAYLOAD,2023-01-08 14:04:11,15.08828567,0.0002095,53.2153,229.0736,51.3401,308.7778,0.00020601,2.991e-05,0.0,0 STARLINK-3736,1 52113U 22029AB  23008.58624270  .00002991  00000-0  20601-3 0  9997,2 52113  53.2153 229.0736 0002095  51.3401 308.7778 15.08828567 46259,6917.915,95.438,541.23,538.331,0.0
52113.0,STARLINK-3736,PAYLOAD,2023-01-08 17:14:57,15.08829474,0.0002101,53.2149,228.4789,50.7485,309.3693,0.0002052,2.978e-05,0.0,0 STARLINK-3736,1 52113U 22029AB  23008.71872349  .00002978  00000-0  20520-3 0  9999,2 52113  53.2149 228.4789 0002101  50.7485 309.3693 15.08829474 46271,6917.913000000001,95.438,541.231,538.3240000000002,0.0
52113.0,STARLINK-3736,PAYLOAD,2023-01-09 07:33:25,15.08844063,0.0001902,53.2149,225.8029,44.2744,315.84,0.00031258,4.691e-05,0.0,0 STARLINK-3736,1 52113U 22029AB  23009.31487821  .00004691  00000-0  31258-3 0  9997,2 52113  53.2149 225.8029 0001902  44.2744 315.8400 15.08844063 46362,6917.868,95.437,541.049,538.4169999999998,0.0
52113.0,STARLINK-3736,PAYLOAD,2023-01-09 13:54:57,15.08846578,0.0001817,53.2151,224.6138,41.6921,318.4209,0.00034701,5.24e-05,0.0,0 STARLINK-3736,1 52113U 22029AB  23009.57983715  .00005240  00000-0  34701-3 0  9995,2 52113  53.2151 224.6138 0001817  41.6921 318.4209 15.08846578 46400,6917.86,95.437,540.982,538.4680000000002,0.0
52113.0,STARLINK-3736,PAYLOAD,2023-01-10 07:24:12,15.0884611,0.0002472,53.2108,221.3434,51.5944,308.527,0.00024656,3.639e-05,0.0,0 STARLINK-3736,1 52113U 22029AB  23010.30847794  .00003639  00000-0  24656-3 0  9992,2 52113  53.2108 221.3434 0002472  51.5944 308.5270 15.08846110 46510,6917.861999999999,95.437,541.437,538.0169999999998,0.0
52113.0,STARLINK-3736,PAYLOAD,2023-01-10 13:45:44,15.08849092,0.000201,53.215,220.1522,46.0902,314.0256,0.00016576,2.352e-05,0.0,0 STARLINK-3736,1 52113U 22029AB  23010.57343301  .00002352  00000-0  16576-3 0  9999,2 52113  53.2150 220.1522 0002010  46.0902 314.0256 15.08849092 46555,6917.853,95.437,541.1080000000002,538.327,0.0
52113.0,STARLINK-3736,PAYLOAD,2023-01-10 20:07:16,15.08852011,0.0002014,53.215,218.9628,45.5451,314.5705,0.00020533,2.982e-05,0.0,0 STARLINK-3736,1 52113U 22029AB  23010.83839070  .00002982  00000-0  20533-3 0  9998,2 52113  53.2150 218.9628 0002014  45.5451 314.5705 15.08852011 46597,6917.844,95.437,541.102,538.315,0.0
52113.0,STARLINK-3736,PAYLOAD,2023-01-11 13:36:31,15.08850892,0.0002315,53.214,215.6921,49.065,311.0542,0.00015626,2.2e-05,0.0,0 STARLINK-3736,1 52113U 22029AB  23011.56702742  .00002200  00000-0  15626-3 0  9994,2 52113  53.2140 215.6921 0002315  49.0650 311.0542 15.08850892 46709,6917.847,95.437,541.314,538.111,0.0
52113.0,STARLINK-3736,PAYLOAD,2023-01-11 19:58:03,15.08842006,0.0002176,53.2144,214.5013,50.1281,309.9902,-3.9849e-05,-9.23e-06,0.0,0 STARLINK-3736,1 52113U 22029AB  23011.83198950 -.00000923  00000-0 -39849-4 0  9990,2 52113  53.2144 214.5013 0002176  50.1281 309.9902 15.08842006 46749,6917.874,95.437,541.245,538.234,0.0
52113.0,STARLINK-3736,PAYLOAD,2023-01-12 19:48:51,15.08840891,0.0002145,53.2147,210.0409,50.3672,309.7509,4.3883e-05,4.1e-06,0.0,0 STARLINK-3736,1 52113U 22029AB  23012.82559244  .00000410  00000-0  43883-4 0  9999,2 52113  53.2147 210.0409 0002145  50.3672 309.7509 15.08840891 46891,6917.8780000000015,95.437,541.227,538.259,0.0
52113.0,STARLINK-3736,PAYLOAD,2023-01-13 08:31:56,15.08836852,0.00022,53.2152,207.6627,47.6656,312.4522,1.2899e-05,-8.3e-07,0.0,0 STARLINK-3736,1 52113U 22029AB  23013.35551648 -.00000083  00000-0  12899-4 0  9998,2 52113  53.2152 207.6627 0002200  47.6656 312.4522 15.08836852 46971,6917.89,95.438,541.2769999999999,538.2330000000001,0.0
52113.0,STARLINK-3736,PAYLOAD,2023-01-13 19:39:38,15.08834988,0.0002084,53.2154,205.5809,45.9363,314.1801,7.4632e-05,9e-06,0.0,0 STARLINK-3736,1 52113U 22029AB  23013.81919896  .00000900  00000-0  74632-4 0  9992,2 52113  53.2154 205.5809 0002084  45.9363 314.1801 15.08834988 47044,6917.896,95.438,541.202,538.319,0.0
52113.0,STARLINK-3736,PAYLOAD,2023-01-14 11:33:30,15.08834849,0.0002003,53.2155,202.6078,47.8545,312.2617,0.00010144,1.326e-05,0.0,0 STARLINK-3736,1 52113U 22029AB  23014.48160167  .00001326  00000-0  10144-3 0  9995,2 52113  53.2155 202.6078 0002003  47.8545 312.2617 15.08834849 47146,6917.896,95.438,541.1469999999999,538.375,0.0
52113.0,STARLINK-3736,PAYLOAD,2023-01-15 11:24:17,15.08833428,0.0002026,53.2155,198.1472,51.177,308.9402,5.9179e-05,6.54e-06,0.0,0 STARLINK-3736,1 52113U 22029AB  23015.47520582  .00000654  00000-0  59179-4 0  9991,2 52113  53.2155 198.1472 0002026  51.1770 308.9402 15.08833428 47298,6917.9,95.438,541.1669999999999,538.364,0.0
52113.0,STARLINK-3736,PAYLOAD,2023-01-15 19:21:13,15.08838113,0.0001985,53.2164,196.6605,50.9973,309.1195,0.0001214,1.644e-05,0.0,0 STARLINK-3736,1 52113U 22029AB  23015.80640489  .00001644  00000-0  12140-3 0  9993,2 52113  53.2164 196.6605 0001985  50.9973 309.1195 15.08838113 47348,6917.886,95.438,541.124,538.378,0.0
52113.0,STARLINK-3736,PAYLOAD,2023-01-16 12:50:28,15.08830695,0.000193,53.2165,193.3891,55.5233,304.5942,0.00022449,3.286e-05,0.0,0 STARLINK-3736,1 52113U 22029AB  23016.53504922  .00003286  00000-0  22449-3 0  9992,2 52113  53.2165 193.3891 0001930  55.5233 304.5942 15.08830695 47458,6917.909000000001,95.438,541.109,538.439,0.0
52113.0,STARLINK-3736,PAYLOAD,2023-01-16 19:12:00,15.08843892,0.0001955999999999,53.2166,192.1998,54.2753,305.8421,0.00013291,1.828e-05,0.0,0 STARLINK-3736,1 52113U 22029AB  23016.80000309  .00001828  00000-0  13291-3 0  9997,2 52113  53.2166 192.1998 0001956  54.2753 305.8421 15.08843892 47498,6917.868,95.437,541.087,538.38,0.0
52113.0,STARLINK-3736,PAYLOAD,2023-01-16 22:22:46,15.08846272,0.0001923,53.2166,191.6048,55.0761,305.0412,0.00014281,1.986e-05,0.0,0 STARLINK-3736,1 52113U 22029AB  23016.93248110  .00001986  00000-0  14281-3 0  9990,2 52113  53.2166 191.6048 0001923  55.0761 305.0412 15.08846272 47510,6917.861,95.437,541.057,538.396,0.0
52113.0,STARLINK-3736,PAYLOAD,2023-01-17 04:44:19,15.08836548,0.0001975,53.2158,190.4156,55.004,305.1137,4.8654e-05,4.86e-06,0.0,0 STARLINK-3736,1 52113U 22029AB  23017.19744717  .00000486  00000-0  48654-4 0  9999,2 52113  53.2158 190.4156 0001975  55.0040 305.1137 15.08836548 47559,6917.891,95.438,541.122,538.39,0.0
52113.0,STARLINK-3736,PAYLOAD,2023-01-17 20:38:11,15.08837322,0.0002056,53.2178,187.4427,54.0558,306.0625,7.0823e-05,8.39e-06,0.0,0 STARLINK-3736,1 52113U 22029AB  23017.85985009  .00000839  00000-0  70823-4 0  9998,2 52113  53.2178 187.4427 0002056  54.0558 306.0625 15.08837322 47656,6917.889,95.438,541.1759999999999,538.331,0.0
52113.0,STARLINK-3736,PAYLOAD,2023-01-18 10:56:39,15.08840516,0.0001966,53.2169,184.7656,60.0844,300.0344,0.00011227,1.499e-05,0.0,0 STARLINK-3736,1 52113U 22029AB  23018.45600806  .00001499  00000-0  11227-3 0  9999,2 52113  53.2169 184.7656 0001966  60.0844 300.0344 15.08840516 47745,6917.879,95.438,541.104,538.384,0.0
52113.0,STARLINK-3736,PAYLOAD,2023-01-18 17:18:11,15.08840601,0.000197,53.217,183.5761,60.5506,299.5683,0.00010871,1.442e-05,0.0,0 STARLINK-3736,1 52113U 22029AB  23018.72096865  .00001442  00000-0  10871-3 0  9995,2 52113  53.2170 183.5761 0001970  60.5506 299.5683 15.08840601 47783,6917.879,95.438,541.106,538.381,0.0
52113.0,STARLINK-3736,PAYLOAD,2023-01-19 04:25:53,15.08837494,0.0001689,53.2171,181.4936,65.692,294.4249,1.5452e-05,-4.2e-07,0.0,0 STARLINK-3736,1 52113U 22029AB  23019.18465259 -.00000042  00000-0  15452-4 0  9990,2 52113  53.2171 181.4936 0001689  65.6920 294.4249 15.08837494 47854,6917.888000000001,95.438,540.9209999999999,538.585,0.0
52113.0,STARLINK-3736,PAYLOAD,2023-01-19 18:44:21,15.088483600000002,0.0001766999999999,53.2176,178.817,66.4674,293.6503,0.00010993,1.462e-05,0.0,0 STARLINK-3736,1 52113U 22029AB  23019.78080425  .00001462  00000-0  10993-3 0  9994,2 52113  53.2176 178.8170 0001767  66.4674 293.6503 15.08848360 47949,6917.855,95.437,540.942,538.497,0.0
52113.0,STARLINK-3736,PAYLOAD,2023-01-20 15:24:22,15.0884236,0.0001771,53.2178,174.9518,66.2662,293.8516,9.2706e-05,1.188e-05,0.0,0 STARLINK-3736,1 52113U 22029AB  23020.64192758  .00001188  00000-0  92706-4 0  9992,2 52113  53.2178 174.9518 0001771  66.2662 293.8516 15.08842360 48079,6917.8730000000005,95.437,540.9630000000001,538.513,0.0
52113.0,STARLINK-3736,PAYLOAD,2023-01-21 02:32:04,15.08836439,0.0001884,53.2177,172.8697,67.1292,292.9899,7.777e-05,9.5e-06,0.0,0 STARLINK-3736,1 52113U 22029AB  23021.10561213  .00000950  00000-0  77770-4 0  9990,2 52113  53.2177 172.8697 0001884  67.1292 292.9899 15.08836439 48149,6917.891,95.438,541.06,538.453,0.0
